H1 CPF  1  DGF 2022 07 01 11  6821 larets     NONE      
H2   304206 5557    27944 2022 07 01 00 00 00 2022 07 08 00 00 00    30 1 1  0 0 0
H5  0.0650
H9
10 0 59766      0.000000  0      -4990324.220      -3680473.509       3368376.480
10 0 59766     30.000000  0      -5103169.163      -3701007.832       3171131.257
10 0 59766     60.000000  0      -5210909.792      -3717299.241       2970640.299
10 0 59766     90.000000  0      -5313417.326      -3729353.254       2767108.374
10 0 59766    120.000000  0      -5410568.358      -3737180.277       2560743.448
10 0 59766    150.000000  0      -5502245.012      -3740795.578       2351756.471
10 0 59766    180.000000  0      -5588335.085      -3740219.247       2140361.156
10 0 59766    210.000000  0      -5668732.194      -3735476.159       1926773.754
10 0 59766    240.000000  0      -5743335.914      -3726595.919       1711212.828
10 0 59766    270.000000  0      -5812051.901      -3713612.814       1493899.024
10 0 59766    300.000000  0      -5874792.020      -3696565.748       1275054.838
10 0 59766    330.000000  0      -5931474.459      -3675498.177       1054904.379
10 0 59766    360.000000  0      -5982023.835      -3650458.040        833673.136
10 0 59766    390.000000  0      -6026371.298      -3621497.682        611587.735
10 0 59766    420.000000  0      -6064454.621      -3588673.773        388875.704
10 0 59766    450.000000  0      -6096218.290      -3552047.219        165765.226
10 0 59766    480.000000  0      -6121613.578      -3511683.075        -57515.103
10 0 59766    510.000000  0      -6140598.618      -3467650.443       -280736.517
10 0 59766    540.000000  0      -6153138.461      -3420022.370       -503670.329
10 0 59766    570.000000  0      -6159205.131      -3368875.744       -726088.171
10 0 59766    600.000000  0      -6158777.666      -3314291.175       -947762.244
10 0 59766    630.000000  0      -6151842.149      -3256352.884      -1168465.556
10 0 59766    660.000000  0      -6138391.738      -3195148.578      -1387972.165
10 0 59766    690.000000  0      -6118426.681      -3130769.329      -1606057.414
10 0 59766    720.000000  0      -6091954.321      -3063309.441      -1822498.171
10 0 59766    750.000000  0      -6058989.106      -2992866.324      -2037073.062
10 0 59766    780.000000  0      -6019552.576      -2919540.358      -2249562.701
10 0 59766    810.000000  0      -5973673.353      -2843434.755      -2459749.924
10 0 59766    840.000000  0      -5921387.110      -2764655.417      -2667420.015
10 0 59766    870.000000  0      -5862736.545      -2683310.795      -2872360.935
10 0 59766    900.000000  0      -5797771.337      -2599511.742      -3074363.534
10 0 59766    930.000000  0      -5726548.095      -2513371.363      -3273221.775
10 0 59766    960.000000  0      -5649130.304      -2425004.867      -3468732.940
10 0 59766    990.000000  0      -5565588.259      -2334529.414      -3660697.843
10 0 59766   1020.000000  0      -5475998.996      -2242063.961      -3848921.030
10 0 59766   1050.000000  0      -5380446.206      -2147729.109      -4033210.979
10 0 59766   1080.000000  0      -5279020.156      -2051646.946      -4213380.296
10 0 59766   1110.000000  0      -5171817.586      -1953940.892      -4389245.901
10 0 59766   1140.000000  0      -5058941.614      -1854735.542      -4560629.218
10 0 59766   1170.000000  0      -4940501.624      -1754156.506      -4727356.348
10 0 59766   1200.000000  0      -4816613.150      -1652330.252      -4889258.249
10 0 59766   1230.000000  0      -4687397.754      -1549383.948      -5046170.896
10 0 59766   1260.000000  0      -4552982.893      -1445445.301      -5197935.451
10 0 59766   1290.000000  0      -4413501.784      -1340642.401      -5344398.406
10 0 59766   1320.000000  0      -4269093.267      -1235103.565      -5485411.740
10 0 59766   1350.000000  0      -4119901.652      -1128957.181      -5620833.059
10 0 59766   1380.000000  0      -3966076.570      -1022331.552      -5750525.730
10 0 59766   1410.000000  0      -3807772.814       -915354.742      -5874359.012
10 0 59766   1440.000000  0      -3645150.178       -808154.428      -5992208.184
10 0 59766   1470.000000  0      -3478373.283       -700857.741      -6103954.653
10 0 59766   1500.000000  0      -3307611.410       -593591.124      -6209486.073
10 0 59766   1530.000000  0      -3133038.321       -486480.184      -6308696.440
10 0 59766   1560.000000  0      -2954832.078       -379649.544      -6401486.199
10 0 59766   1590.000000  0      -2773174.855       -273222.707      -6487762.329
10 0 59766   1620.000000  0      -2588252.748       -167321.909      -6567438.435
10 0 59766   1650.000000  0      -2400255.582        -62067.987      -6640434.815
10 0 59766   1680.000000  0      -2209376.706         42419.758      -6706678.537
10 0 59766   1710.000000  0      -2015812.801        146023.690      -6766103.496
10 0 59766   1740.000000  0      -1819763.680        248627.967      -6818650.477
10 0 59766   1770.000000  0      -1621432.077        350118.670      -6864267.208
10 0 59766   1800.000000  0      -1421023.440        450383.923      -6902908.404
10 0 59766   1830.000000  0      -1218745.723        549314.021      -6934535.811
10 0 59766   1860.000000  0      -1014809.165        646801.544      -6959118.230
10 0 59766   1890.000000  0       -809426.076        742741.471      -6976631.549
10 0 59766   1920.000000  0       -602810.620        837031.294      -6987058.753
10 0 59766   1950.000000  0       -395178.599        929571.117      -6990389.942
10 0 59766   1980.000000  0       -186747.226       1020263.763      -6986622.336
10 0 59766   2010.000000  0         22265.089       1109014.872      -6975760.281
10 0 59766   2040.000000  0        231638.966       1195732.992      -6957815.246
10 0 59766   2070.000000  0        441154.290       1280329.680      -6932805.818
10 0 59766   2100.000000  0        650590.435       1362719.588      -6900757.684
10 0 59766   2130.000000  0        859726.504       1442820.551      -6861703.599
10 0 59766   2160.000000  0       1068341.559       1520553.670      -6815683.350
10 0 59766   2190.000000  0       1276214.839       1595843.381      -6762743.719
10 0 59766   2220.000000  0       1483126.000       1668617.533      -6702938.435
10 0 59766   2250.000000  0       1688855.335       1738807.456      -6636328.130
10 0 59766   2280.000000  0       1893184.018       1806348.023      -6562980.283
10 0 59766   2310.000000  0       2095894.331       1871177.713      -6482969.151
10 0 59766   2340.000000  0       2296769.900       1933238.665      -6396375.699
10 0 59766   2370.000000  0       2495595.916       1992476.729      -6303287.515
10 0 59766   2400.000000  0       2692159.368       2048841.510      -6203798.731
10 0 59766   2430.000000  0       2886249.261       2102286.412      -6098009.933
10 0 59766   2460.000000  0       3077656.846       2152768.673      -5986028.069
10 0 59766   2490.000000  0       3266175.843       2200249.401      -5867966.346
10 0 59766   2520.000000  0       3451602.665       2244693.601      -5743944.126
10 0 59766   2550.000000  0       3633736.639       2286070.199      -5614086.813
10 0 59766   2580.000000  0       3812380.227       2324352.064      -5478525.733
10 0 59766   2610.000000  0       3987339.242       2359516.021      -5337398.006
10 0 59766   2640.000000  0       4158423.066       2391542.864      -5190846.416
10 0 59766   2670.000000  0       4325444.856       2420417.358      -5039019.270
10 0 59766   2700.000000  0       4488221.759       2446128.244      -4882070.256
10 0 59766   2730.000000  0       4646575.110       2468668.226      -4720158.287
10 0 59766   2760.000000  0       4800330.635       2488033.971      -4553447.351
10 0 59766   2790.000000  0       4949318.644       2504226.091      -4382106.346
10 0 59766   2820.000000  0       5093374.227       2517249.126      -4206308.918
10 0 59766   2850.000000  0       5232337.441       2527111.520      -4026233.283
10 0 59766   2880.000000  0       5366053.488       2533825.593      -3842062.057
10 0 59766   2910.000000  0       5494372.895       2537407.506      -3653982.071
10 0 59766   2940.000000  0       5617151.686       2537877.230      -3462184.193
10 0 59766   2970.000000  0       5734251.558       2535258.500      -3266863.136
10 0 59766   3000.000000  0       5845540.043       2529578.772      -3068217.262
10 0 59766   3030.000000  0       5950890.670       2520869.171      -2866448.374
10 0 59766   3060.000000  0       6050183.107       2509164.436      -2661761.511
10 0 59766   3090.000000  0       6143303.304       2494502.857      -2454364.741
10 0 59766   3120.000000  0       6230143.634       2476926.214      -2244468.947
10 0 59766   3150.000000  0       6310603.016       2456479.707      -2032287.615
10 0 59766   3180.000000  0       6384587.043       2433211.883      -1818036.608
10 0 59766   3210.000000  0       6452008.092       2407174.556      -1601933.955
10 0 59766   3240.000000  0       6512785.440       2378422.732      -1384199.621
10 0 59766   3270.000000  0       6566845.359       2347014.518      -1165055.280
10 0 59766   3300.000000  0       6614121.218       2313011.041       -944724.089
10 0 59766   3330.000000  0       6654553.563       2276476.348       -723430.448
10 0 59766   3360.000000  0       6688090.191       2237477.313       -501399.764
10 0 59766   3390.000000  0       6714686.218       2196083.534       -278858.222
10 0 59766   3420.000000  0       6734304.134       2152367.230        -56032.545
10 0 59766   3450.000000  0       6746913.846       2106403.135        166850.234
10 0 59766   3480.000000  0       6752492.729       2058268.389        389563.009
10 0 59766   3510.000000  0       6751025.657       2008042.431        611878.827
10 0 59766   3540.000000  0       6742505.036       1955806.884        833571.128
10 0 59766   3570.000000  0       6726930.825       1901645.441       1054413.983
99
